#dP2024  3 28  0  0  0.00000000      96 __u+U IGS20 FIT  IAC
## 2307 345600.00000000   900.00000000 60397 0.0000000000000
+  132   C01C02C03C04C05C06C07C08C09C10C11C12C13C14C16C19C20
+        C21C22C23C24C25C26C27C28C29C30C32C33C34C35C36C37C38
+        C39C40C41C42C43C44C45C46C59C60C62E02E03E04E05E07E08
+        E09E10E11E12E13E14E15E18E19E21E24E25E26E27E30E31E33
+        E34E36G01G02G03G04G05G06G07G08G09G10G11G12G13G14G15
+        G16G17G18G19G20G21G22G23G24G25G26G27G28G29G30G31G32
+        J02J03J04J07R01R02R03R04R05R06R07R08R09R10R11R12R13
+        R14R15R16R17R18R19R20R21R22R23R24R25R26  0  0  0  0
++        17 17 17  0 17  9  9 10  9  9  9  9  9  9  9  7  8
++         7  7  7  7  7  7  7  7  7  7  8  7  7  8  7  7  8
++         8  8  8  7  7  7  7  8 18 17 17  4  4  4  5  4  4
++         4  4  5  4  4  4  5  5  4  4  4  4  4  4  4  5  4
++         5  5  5  4  4  4  4  4  4  4  4  4  4  4  4  4  4
++         4  4  4  4  4  4  4  4  4  4  4  4  4  4  4  4  4
++        10 10 11 17  7  6  6  6  6 15  6  6  6 15  6  6  8
++         6  6  6  6  6  8  8  6  6 15  6  8  8  0  0  0  0
%c M  cc GPS ccc cccc cccc cccc cccc ccccc ccccc ccccc ccccc
%c cc cc ccc ccc cccc cccc cccc cccc ccccc ccccc ccccc ccccc
%f  0.0000000  0.000000000  0.00000000000  0.000000000000000
%f  0.0000000  0.000000000  0.00000000000  0.000000000000000
%i    0    0    0    0      0      0      0      0         0
%i    0    0    0    0      0      0      0      0         0
/* INFORMATION & ANALYSIS CENTER (IAC)            RAPID DATA
/* S/V CLOCKS ARE ALIGNED TO GNSS TIME                      
/* G:C1WC2W R:C1PC2P E:C1XC5X C:C2IC6I J:C1CC2S             
/* PCV:IGS20_2290 OL/AL:FES2004  NONE     YN ORB:CoN CLK:CoN
*  2024 03 28 14 45  0.00000000
PC01 -34314.072983  24467.065196   1121.942159    889.565399
PC02   4292.665771  41938.941372   1325.803249    552.419000
PC03 -14803.882640  39487.733509   1247.594998     99.799645
PC04      0.000000      0.000000      0.000000 999999.999999
PC05  21876.787971  36073.424212    803.158373   -917.534933
PC06 -15646.183722  37975.592473 -10154.394471    304.972769
PC07  -3820.009623  32986.123122 -25792.480288   -873.077450
PC08 -13417.148467  19180.987495  35024.912266     23.737272
PC09 -12287.907123  37155.841870 -16024.857850   -683.645498
PC10   3861.276539  35946.183699 -20928.170670     25.663973
PC11   1393.743364  25410.469370  11511.252631    483.129107
PC12 -10708.041429  24844.813132  -6820.591152   -221.786224
PC13  -4056.018857  21722.300653  36053.009575    427.797387
PC14  11892.769200  22024.464588  12289.934423    510.991028
PC16 -19330.312919  37270.343476  -5247.587675   -423.607360
PC19 -18839.594343 -20304.429821  -3504.259590   -916.804941
PC20  -4843.533431 -20799.759804 -17966.536609   -302.569359
PC21 -13522.555952   8600.093589  22868.645921   -961.753218
PC22 -22845.245187  -8173.617781  13816.885602    -58.688043
PC23  25764.124154   -145.667978 -10726.634939   -775.629830
PC24  -8050.385540  17746.719002 -19984.237735    948.655073
PC25  13115.177066  11888.667091 -21589.821073    360.719409
PC26 -23420.904731  13448.920190  -6975.252840   -269.218243
PC27  14583.973063 -18957.806356  14342.028357    291.058930
PC28  16494.169738  -1618.389238  22453.065577    222.232712
PC29  -8873.735178 -19833.092564 -17516.118428    260.638914
PC30   4226.547639 -27544.274621  -1211.235260    -45.737074
PC32  13480.587342  -8665.770140 -22823.077446   -591.151371
PC33  18864.379307  20221.713988   3651.297090   -963.491787
PC34  -3200.337618  27602.056093   2705.109897    399.972281
PC35 -16496.592256   2029.162430 -22436.835000    400.444730
PC36 -12512.506934 -12361.699907  21681.171768     33.293596
PC37  23936.356963 -12749.283027   6637.687014   -950.144169
PC38 -21199.088165  20007.561420  30468.611438    145.525604
PC39 -20502.219191  36980.629500    741.359014     -7.753395
PC40  -7168.619177  28923.127589 -29726.724921    -62.855189
PC41  22993.549556   8801.081209 -13059.626735   -913.818190
PC42   3168.825466  20226.802583  18994.552331   -444.940762
PC43   8357.171787  20629.552055  16834.372983     65.855623
PC44 -14018.161842  19365.723315 -14440.385323    426.849063
PC45 -25752.937817    165.457668  10714.751854    -77.773397
PC46   7292.446862 -17594.286228  20400.163444   -135.349473
PC59 -32284.463037  27091.802873   1409.618818 999999.999999
PC60   7276.382179  41507.664097   1586.593962     -0.486590
PC62 -39597.367776  14387.794442  -1684.570839     -0.083510
PE02 -15689.237701  11465.115831 -22334.437966    114.886146
PE03  -8713.430058  20677.912678  19300.306965   -103.392372
PE04  -5189.088383 -28995.512591  -2924.110658   -360.282703
PE05 -17246.273333    428.356228  24061.966155   4733.297041
PE07  15616.710132  20539.969191 -14484.516212   -111.429472
PE08   4671.914033  28987.481270   3703.674591   -246.057878
PE09 -15514.762050 -20656.825049  14469.426762   -386.784915
PE10  -4812.634544 -16735.579825 -23941.408273   -612.786134
PE11 -14118.391957  -8466.021749 -24612.508068   3118.073118
PE12   4129.833031 -21676.712806 -19719.831745   -968.720958
PE13  13534.905321   8989.233934  24743.457571    -20.739811
PE14  13989.610028 -11597.655936  19053.732030     79.253573
PE15  -4702.146607  21863.617011  19405.024568    -93.822374
PE18 -19828.409771     87.655384 -22958.440080    486.847002
PE19   9972.282968 -18828.261681 -20534.837035   -348.195066
PE21  28009.625400   1276.644254   9484.513592   -586.298000
PE24 -24169.827836 -14051.963197   9669.238892   -676.205938
PE25 -28109.780008  -1556.270069  -9135.690345      2.666089
PE26  23738.046318  -9369.788478  14992.604617    409.516012
PE27  24436.058633  13819.768195  -9407.002957   -310.126442
PE30   6234.739708  18132.064996 -22571.018267   -140.992530
PE31  -6492.563749 -18065.854504  22529.298927    -19.386706
PE33  20189.755815 -21526.444623  -2244.594728      9.648842
PE34 -19872.217915  21763.012789   2770.469933   -102.501609
PE36 -23570.215552   8935.508719 -15529.423339   -205.516563
PG01   7011.214604 -20704.388134 -15197.157597    176.481718
PG02  14118.332938 -21770.486678  -4458.192436   -462.854849
PG03   5927.162009 -13674.971840 -22124.080064    278.626572
PG04   3217.629277 -23237.138045 -12311.731102    325.632746
PG05 -19623.337295   7264.801655  16238.091168   -167.067914
PG06 -17150.027602  -1662.724767 -20180.440854    347.935854
PG07  -2958.591090 -17480.564175  20137.217086    -94.614895
PG08   8730.135033 -16458.226593  18658.587794     86.063350
PG09  -7520.517548 -25441.644599   -254.272519    140.370955
PG10  23357.010659  10980.193647   7156.619607     -3.307044
PG11 -21913.061089   9048.085177 -11903.622867   -620.264241
PG12  -8092.532080  13294.047337 -21804.491827   -491.393960
PG13 -13668.764109   7561.191106  21243.849594    638.004069
PG14 -20719.337539 -13458.701958  10035.300784    362.062760
PG15  -6759.542026  17639.846500  18099.851006    142.427627
PG16  23292.309855  -1198.649273  12784.516865   -330.463950
PG17 -12518.095644 -19856.129743 -11856.190441    711.876596
PG18   2913.837593  16599.557368  20491.856135   -584.209927
PG19 -15050.403256 -11728.321206 -18816.029791    460.291262
PG20 -25786.116391   2063.443515   5717.115374    382.261427
PG21  16852.555337 -19805.071603    669.543949    129.552539
PG22 -24006.682086 -10710.551000   2859.565145      9.018167
PG23  14189.168772  14923.654004  16906.484246    187.544428
PG24 -14376.552008  21843.275072  -3533.010468   -452.386398
PG25   3865.797378  16335.708207 -20976.772674    492.443066
PG26  26452.926535   3851.563337   1099.362093    173.979073
PG27  14544.195344  -3833.427178  21607.241996    -14.987539
PG28  15911.025404   4198.691964 -20863.006815   -181.378458
PG29   3684.047182  26166.180796  -2087.716444   -603.581296
PG30 -12714.984920  -9574.823460  21413.771957   -413.390399
PG31  21157.765165  -5056.891102 -15717.230446   -228.021961
PG32  14996.036287  16845.642483 -13979.584528   -617.085473
PJ02 -27834.661091  15656.726960 -22911.155763     -3.405085
PJ03 -26694.138293  31896.981430  -2347.603289     -0.145638
PJ04 -25676.832754  26354.842255  26477.801340     50.579355
PJ07 -25392.354593  33667.453622     25.177334 999999.999999
PR01 -16937.241712  -7730.771674  17452.586289     80.909358
PR02  -7595.189484   7846.514586  23105.920619    -22.647205
PR03   5760.256894  19520.563128  15466.955500     97.196366
PR04  15430.534207  20315.582734   -376.777350    229.553453
PR05  16934.915793  10295.983956 -16053.130227    129.109443
PR06   6547.729931  -9211.177332 -22870.414316   -156.645483
PR07  -6408.419601 -19794.251497 -14676.901334     78.965731
PR08 -15731.362700 -20045.886053    797.148862    -74.902136
PR09  20478.655215  -9322.436441  11952.387126    177.872023
PR10   7252.814343 -11530.648255  21571.514840   -142.006966
PR11 -12520.923379  -8131.258441  20695.009391     29.768541
PR12 -24860.011358    635.421241   5667.562815     38.332756
PR13 -22142.849879   8027.686662  -9806.898852    -45.735216
PR14  -4830.136888  11583.497017 -22202.170985     26.279807
PR15  13927.195590   7772.723218 -19889.880994     80.975479
PR16  24783.976853   -678.790110  -5916.327748     24.359824
PR17  -6526.159889  23612.797230   7054.065249     72.990680
PR18   3053.575005  15544.853565  20024.372676    134.380820
PR19  10677.618367   1535.454352  23111.567888   -271.031339
PR20  14158.072752 -17856.918741  11416.925806   -110.467516
PR21   6719.812778 -23563.980001  -7125.977843    -88.170395
PR22  -3660.582264 -14840.011358 -20391.628403    114.815395
PR23 -12035.136405   2307.974024 -22382.651550   -116.213017
PR24 -13507.090758  18757.273024 -10765.697665    -49.576092
PR25   7307.993193 -23367.438835  -7182.206462    -25.569804
PR26 -15443.859612 -20314.417672   -383.510342    -27.897512
EOF
